[
    {
        "Altitude(m)": 610405.3045936141,
        "Argument of Periapsis(deg)": 0.0,
        "Eccentricity": 0.0,
        "Inclination(deg)": 60.0,
        "Latitude(deg)": 52.11122070868506,
        "Longitude(deg)": -162.52244054721368,
        "Mean Anomaly(deg)": 114.54549999999999,
        "RAAN(deg)": 165.0,
        "Satellite Name": "Test1 733",
        "Satellite Number": 733,
        "Semi-Major Axis(m)": 6980739.136638005,
        "Time(s)": 0
    },
    {
        "Altitude(m)": 610321.8769762036,
        "Argument of Periapsis(deg)": 0.00010418945913296404,
        "Eccentricity": 0.0,
        "Inclination(deg)": 60.0,
        "Latitude(deg)": 51.745934200799276,
        "Longitude(deg)": -161.75354944118374,
        "Mean Anomaly(deg)": 115.16560614546184,
        "RAAN(deg)": 164.99957995086024,
        "Satellite Name": "Test1 733",
        "Satellite Number": 733,
        "Semi-Major Axis(m)": 6980739.136638005,
        "Time(s)": 10
    },
    {
        "Altitude(m)": 610237.0852180339,
        "Argument of Periapsis(deg)": 0.0002083789182659281,
        "Eccentricity": 0.0,
        "Inclination(deg)": 60.0,
        "Latitude(deg)": 51.375128651264795,
        "Longitude(deg)": -160.99771086358336,
        "Mean Anomaly(deg)": 115.78571229092368,
        "RAAN(deg)": 164.9991599017205,
        "Satellite Name": "Test1 733",
        "Satellite Number": 733,
        "Semi-Major Axis(m)": 6980739.136638005,
        "Time(s)": 20
    },
    {
        "Altitude(m)": 610150.9795001713,
        "Argument of Periapsis(deg)": 0.00031256837739889213,
        "Eccentricity": 0.0,
        "Inclination(deg)": 60.0,
        "Latitude(deg)": 50.99896264413704,
        "Longitude(deg)": -160.25473168310802,
        "Mean Anomaly(deg)": 116.40581843638553,
        "RAAN(deg)": 164.99873985258077,
        "Satellite Name": "Test1 733",
        "Satellite Number": 733,
        "Semi-Major Axis(m)": 6980739.136638005,
        "Time(s)": 30
    },
    {
        "Altitude(m)": 610063.6108661883,
        "Argument of Periapsis(deg)": 0.0004167578365318562,
        "Eccentricity": 0.0,
        "Inclination(deg)": 60.0,
        "Latitude(deg)": 50.61759100951148,
        "Longitude(deg)": -159.52441106689795,
        "Mean Anomaly(deg)": 117.02592458184735,
        "RAAN(deg)": 164.99831980344103,
        "Satellite Name": "Test1 733",
        "Satellite Number": 733,
        "Semi-Major Axis(m)": 6980739.136638005,
        "Time(s)": 40
    },
    {
        "Altitude(m)": 609975.0311975348,
        "Argument of Periapsis(deg)": 0.0005209472956648203,
        "Eccentricity": 0.0,
        "Inclination(deg)": 60.0,
        "Latitude(deg)": 50.231164798397394,
        "Longitude(deg)": -158.80654253917052,
        "Mean Anomaly(deg)": 117.64603072730915,
        "RAAN(deg)": 164.99789975430127,
        "Satellite Name": "Test1 733",
        "Satellite Number": 733,
        "Semi-Major Axis(m)": 6980739.136638005,
        "Time(s)": 50
    },
    {
        "Altitude(m)": 609885.2931884808,
        "Argument of Periapsis(deg)": 0.0006251367547977843,
        "Eccentricity": 0.0,
        "Inclination(deg)": 60.0,
        "Latitude(deg)": 49.83983127224975,
        "Longitude(deg)": -158.100914456197,
        "Mean Anomaly(deg)": 118.26613687277099,
        "RAAN(deg)": 164.99747970516154,
        "Satellite Name": "Test1 733",
        "Satellite Number": 733,
        "Semi-Major Axis(m)": 6980739.136638005,
        "Time(s)": 60
    },
    {
        "Altitude(m)": 609794.4503206323,
        "Argument of Periapsis(deg)": 0.0007293262139307483,
        "Eccentricity": 0.0,
        "Inclination(deg)": 60.0,
        "Latitude(deg)": 49.44373390573216,
        "Longitude(deg)": -157.40731041202224,
        "Mean Anomaly(deg)": 118.88624301823279,
        "RAAN(deg)": 164.99705965602178,
        "Satellite Name": "Test1 733",
        "Satellite Number": 733,
        "Semi-Major Axis(m)": 6980739.136638005,
        "Time(s)": 70
    },
    {
        "Altitude(m)": 609702.5568370305,
        "Argument of Periapsis(deg)": 0.0008335156730637124,
        "Eccentricity": 0.0,
        "Inclination(deg)": 60.0,
        "Latitude(deg)": 49.043012401356044,
        "Longitude(deg)": -156.72551108973474,
        "Mean Anomaly(deg)": 119.50634916369461,
        "RAAN(deg)": 164.99663960688207,
        "Satellite Name": "Test1 733",
        "Satellite Number": 733,
        "Semi-Major Axis(m)": 6980739.136638005,
        "Time(s)": 80
    },
    {
        "Altitude(m)": 609609.6677158711,
        "Argument of Periapsis(deg)": 0.0009377051321966765,
        "Eccentricity": 0.0,
        "Inclination(deg)": 60.0,
        "Latitude(deg)": 48.63780271470982,
        "Longitude(deg)": -156.05529453481233,
        "Mean Anomaly(deg)": 120.12645530915646,
        "RAAN(deg)": 164.9962195577423,
        "Satellite Name": "Test1 733",
        "Satellite Number": 733,
        "Semi-Major Axis(m)": 6980739.136638005,
        "Time(s)": 90
    },
    {
        "Altitude(m)": 609515.838643816,
        "Argument of Periapsis(deg)": 0.0010418945913296407,
        "Eccentricity": 0.0,
        "Inclination(deg)": 60.0,
        "Latitude(deg)": 48.22823708907754,
        "Longitude(deg)": -155.39643636594022,
        "Mean Anomaly(deg)": 120.7465614546183,
        "RAAN(deg)": 164.99579950860257,
        "Satellite Name": "Test1 733",
        "Satellite Number": 733,
        "Semi-Major Axis(m)": 6980739.136638005,
        "Time(s)": 100
    },
    {
        "Altitude(m)": 609421.1259889357,
        "Argument of Periapsis(deg)": 0.0011460840504626045,
        "Eccentricity": 0.0,
        "Inclination(deg)": 60.0,
        "Latitude(deg)": 47.81444409832702,
        "Longitude(deg)": -154.74871143889467,
        "Mean Anomaly(deg)": 121.36666760008015,
        "RAAN(deg)": 164.9953794594628,
        "Satellite Name": "Test1 733",
        "Satellite Number": 733,
        "Semi-Major Axis(m)": 6980739.136638005,
        "Time(s)": 110
    },
    {
        "Altitude(m)": 609325.5867732976,
        "Argument of Periapsis(deg)": 0.0012502735095955685,
        "Eccentricity": 0.0,
        "Inclination(deg)": 60.0,
        "Latitude(deg)": 47.39654869701626,
        "Longitude(deg)": -154.11189394060008,
        "Mean Anomaly(deg)": 121.98677374554197,
        "RAAN(deg)": 164.99495941032308,
        "Satellite Name": "Test1 733",
        "Satellite Number": 733,
        "Semi-Major Axis(m)": 6980739.136638005,
        "Time(s)": 120
    },
    {
        "Altitude(m)": 609229.2786451725,
        "Argument of Periapsis(deg)": 0.0013544629687285324,
        "Eccentricity": 0.0,
        "Inclination(deg)": 60.0,
        "Latitude(deg)": 46.974672276754056,
        "Longitude(deg)": -153.48575742917157,
        "Mean Anomaly(deg)": 122.60687989100384,
        "RAAN(deg)": 164.99453936118334,
        "Satellite Name": "Test1 733",
        "Satellite Number": 733,
        "Semi-Major Axis(m)": 6980739.136638005,
        "Time(s)": 130
    },
    {
        "Altitude(m)": 609132.2598509418,
        "Argument of Periapsis(deg)": 0.0014586524278614966,
        "Eccentricity": 0.0,
        "Inclination(deg)": 60.0,
        "Latitude(deg)": 46.54893272792493,
        "Longitude(deg)": -152.87007633579586,
        "Mean Anomaly(deg)": 123.22698603646566,
        "RAAN(deg)": 164.9941193120436,
        "Satellite Name": "Test1 733",
        "Satellite Number": 733,
        "Semi-Major Axis(m)": 6980739.136638005,
        "Time(s)": 140
    },
    {
        "Altitude(m)": 609034.5892066411,
        "Argument of Periapsis(deg)": 0.0015628418869944607,
        "Eccentricity": 0.0,
        "Inclination(deg)": 60.0,
        "Latitude(deg)": 46.11944450595435,
        "Longitude(deg)": -152.26462590569417,
        "Mean Anomaly(deg)": 123.84709218192745,
        "RAAN(deg)": 164.99369926290385,
        "Satellite Name": "Test1 733",
        "Satellite Number": 733,
        "Semi-Major Axis(m)": 6980739.136638005,
        "Time(s)": 150
    },
    {
        "Altitude(m)": 608936.3260691997,
        "Argument of Periapsis(deg)": 0.0016670313461274247,
        "Eccentricity": 0.0,
        "Inclination(deg)": 60.0,
        "Latitude(deg)": 45.68631870136783,
        "Longitude(deg)": -151.6691820939993,
        "Mean Anomaly(deg)": 124.4671983273893,
        "RAAN(deg)": 164.9932792137641,
        "Satellite Name": "Test1 733",
        "Satellite Number": 733,
        "Semi-Major Axis(m)": 6980739.136638005,
        "Time(s)": 160
    },
    {
        "Altitude(m)": 608837.5303073934,
        "Argument of Periapsis(deg)": 0.0017712208052603888,
        "Eccentricity": 0.0,
        "Inclination(deg)": 60.0,
        "Latitude(deg)": 45.24966311296366,
        "Longitude(deg)": -151.08352293233236,
        "Mean Anomaly(deg)": 125.08730447285107,
        "RAAN(deg)": 164.99285916462438,
        "Satellite Name": "Test1 733",
        "Satellite Number": 733,
        "Semi-Major Axis(m)": 6980739.136638005,
        "Time(s)": 170
    },
    {
        "Altitude(m)": 608738.2622724675,
        "Argument of Periapsis(deg)": 0.001875410264393353,
        "Eccentricity": 0.0,
        "Inclination(deg)": 60.0,
        "Latitude(deg)": 44.80958232347546,
        "Longitude(deg)": -150.5074283431739,
        "Mean Anomaly(deg)": 125.70741061831292,
        "RAAN(deg)": 164.99243911548464,
        "Satellite Name": "Test1 733",
        "Satellite Number": 733,
        "Semi-Major Axis(m)": 6980739.136638005,
        "Time(s)": 180
    },
    {
        "Altitude(m)": 608638.5827685356,
        "Argument of Periapsis(deg)": 0.0019795997235263173,
        "Eccentricity": 0.0,
        "Inclination(deg)": 60.0,
        "Latitude(deg)": 44.36617777716693,
        "Longitude(deg)": -149.9406799176543,
        "Mean Anomaly(deg)": 126.32751676377477,
        "RAAN(deg)": 164.99201906634488,
        "Satellite Name": "Test1 733",
        "Satellite Number": 733,
        "Semi-Major Axis(m)": 6980739.136638005,
        "Time(s)": 190
    }
]